NIMIQ 4                 
1 33373U 08044A   26170.87674851  .00000000  00000+0  00000+0 0  9995
2 33373   0.0396  54.0218 0002052  36.6541  51.0823  1.00267038 65011
GALAXY 19 (G-19)        
1 33376U 08045A   26170.87380183 -.00000145  00000+0  00000+0 0  9992
2 33376   0.0292 263.7976 0002591 190.5312  31.3330  1.00271214 64938
ASTRA 1M                
1 33436U 08057A   26170.84211356  .00000115  00000+0  00000+0 0  9990
2 33436   0.3044  82.5048 0004873  25.9731 122.1103  1.00273103 45767
EUTELSAT HOTBIRD 13C    
1 33459U 08065A   26170.88298854 -.00000289  00000+0  00000+0 0  9999
2 33459   2.9582  79.1620 0003434   9.1954  87.3141  1.00270093 47376
EXPRESS-AM44            
1 33595U 09007A   26171.17591698 -.00000095  00000+0  00000+0 0  9997
2 33595   3.4724  78.3623 0004031   4.8647 237.4787  1.00271182 52314
NSS-9                   
1 33749U 09008A   26170.85794176  .00000066  00000+0  00000+0 0  9996
2 33749   1.2698  82.6330 0002052 347.8961 329.4618  1.00271231 63541
TELSTAR 11N             
1 34111U 09009A   26170.97709650 -.00000256  00000+0  00000+0 0  9999
2 34111   0.0290  72.7814 0002315  18.9415 130.6491  1.00269909 46270
WGS F2 (USA 204)        
1 34713U 09017A   26170.79687602  .00000062  00000+0  00000+0 0  9992
2 34713   0.0195  10.8943 0000074 235.7591   5.7399  1.00271016 45643
SES-7 (PROTOSTAR 2)     
1 34941U 09027A   26170.83566723 -.00000350  00000+0  00000+0 0  9992
2 34941   0.0450  71.1849 0000485 279.3624 326.5935  1.00270739 62653
MEASAT-3A               
1 35362U 09032A   26170.85334840 -.00000116  00000+0  00000+0 0  9991
2 35362   0.0227   6.3248 0002964  75.1261 293.8366  1.00271887  8052
GOES 14                 
1 35491U 09033A   26170.84012469 -.00000307  00000+0  00000+0 0  9996
2 35491   1.6979  83.0125 0001890  13.0047 254.7779  1.00110180  6614
FM-5                    
1 35493U 09034A   26170.87588184 -.00000206  00000+0  00000+0 0  9992
2 35493   0.0201 291.8802 0000922  26.0420 179.3265  1.00272378 46672
TERRESTAR-1             
1 35496U 09035A   26170.65700536 -.00000064  00000+0  00000+0 0  9991
2 35496   5.1779  48.7966 0002702  33.0134 311.5801  1.00272820 62158
ASIASAT 5               
1 35696U 09042A   26170.91287677  .00000000  00000+0  00000+0 0  9995
2 35696   0.0311  50.9242 0001587  37.9762 248.4307  1.00265972 61730
JCSAT-12 (JCSAT-RA)     
1 35755U 09044A   26170.84780171 -.00000333  00000+0  00000+0 0  9992
2 35755   0.0065   2.8687 0000470 300.7453  41.7065  1.00275463 61639
OPTUS D3                
1 35756U 09044B   26170.85256840 -.00000152  00000+0  00000+0 0  9994
2 35756   0.8769 268.9133 0002886 174.9992 287.2189  1.00268661 61593
NIMIQ 5                 
1 35873U 09050A   26170.87856852  .00000000  00000+0  00000+0 0  9993
2 35873   0.0200   8.0206 0002724  74.7979  68.8713  1.00270125 61372
AMAZONAS 2              
1 35942U 09054A   26170.87874185 -.00000265  00000+0  00000+0 0  9997
2 35942   1.8236  83.0171 0003197   7.0605  62.3703  1.00272594 61214
COMSATBW-1              
1 35943U 09054B   26170.93667096  .00000020  00000+0  00000+0 0  9994
2 35943   0.0523 159.0775 0002828 288.1124 221.2064  1.00269157 61337
NSS-12                  
1 36032U 09058A   26170.83298118  .00000066  00000+0  00000+0 0  9992
2 36032   0.0911 275.0513 0005053 143.2937 206.5731  1.00272947 60947
THOR 6                  
1 36033U 09058B   26170.78447694 -.00000015  00000+0  00000+0 0  9997
2 36033   0.0279 105.5552 0001659 340.9065 103.1090  1.00271691 61037
INTELSAT 14 (IS-14)     
1 36097U 09064A   26170.96753156 -.00000279  00000+0  00000+0 0  9999
2 36097   0.0154 331.8636 0002376 115.8649 123.7731  1.00271631 60639
EUTELSAT 36B            
1 36101U 09065A   26170.76036734  .00000107  00000+0  00000+0 0  9999
2 36101   0.4985  81.1359 0005516   5.3432 145.7296  1.00269208 60738
INTELSAT 15 (IS-15)     
1 36106U 09067A   26170.83852833 -.00000191  00000+0  00000+0 0  9994
2 36106   0.0178 347.8664 0002175 101.4969 205.7098  1.00272177 41257
WGS F3 (USA 211)        
1 36108U 09068A   26170.72467347  .00000059  00000+0  00000+0 0  9999
2 36108   0.3235  85.7326 0000308 268.8855  44.2087  1.00269156 46619
DIRECTV 12              
1 36131U 09075A   26170.65873870 -.00000109  00000+0  00000+0 0  9994
2 36131   0.0448 170.4501 0000286 291.6356 300.2141  1.00270604 46571
BEIDOU-2 G1             
1 36287U 10001A   26170.92076348 -.00000287  00000+0  00000+0 0  9999
2 36287   4.3008  60.4070 0002261 297.4453  22.2130  1.00269320 60194
SDO                     
1 36395U 10005A   26168.41002763 -.00000096  00000+0  00000+0 0  9992
2 36395  34.6527  86.3378 0001734  44.0102 180.8312  1.00269958 60061
INTELSAT 16 (IS-16)     
1 36397U 10006A   26170.87787519 -.00000250  00000+0  00000+0 0  9999
2 36397   0.0100 348.5640 0002025 114.1436  45.2174  1.00272172 59683
EWS-G2 (GOES 15)        
1 36411U 10008A   26170.81078444  .00000014  00000+0  00000+0 0  9999
2 36411   1.2858  82.8080 0004905  42.1464 138.6248  1.00266643 59662
ECHOSTAR 14             
1 36499U 10010A   26170.86929515 -.00000005  00000+0  00000+0 0  9998
2 36499   0.0163  34.1973 0002444  65.5222   2.4147  1.00270134 46585
SES-1                   
1 36516U 10016A   26170.87293516 -.00000120  00000+0  00000+0 0  9998
2 36516   0.0284 301.0861 0002673 143.5238  36.7305  1.00270911 59065
