OBJECT_NAME,OBJECT_ID,EPOCH,MEAN_MOTION,ECCENTRICITY,INCLINATION,RA_OF_ASC_NODE,ARG_OF_PERICENTER,MEAN_ANOMALY,EPHEMERIS_TYPE,CLASSIFICATION_TYPE,NORAD_CAT_ID,ELEMENT_SET_NO,REV_AT_EPOCH,BSTAR,MEAN_MOTION_DOT,MEAN_MOTION_DDOT
NIMIQ 4,2008-044A,2026-06-19T21:02:31.071264,1.00267038,.00020521,0.0396,54.0218,36.6541,51.0823,0,U,33373,999,6501,0,0,0
GALAXY 19 (G-19),2008-045A,2026-06-19T20:58:16.478112,1.00271214,.00025913,0.0292,263.7976,190.5312,31.3330,0,U,33376,999,6493,0,-.145E-5,0
ASTRA 1M,2008-057A,2026-06-19T20:12:38.611584,1.00273103,.00048731,0.3044,82.5048,25.9731,122.1103,0,U,33436,999,4576,0,.115E-5,0
EUTELSAT HOTBIRD 13C,2008-065A,2026-06-19T21:11:30.209856,1.00270093,.00034349,2.9582,79.1620,9.1954,87.3141,0,U,33459,999,4737,0,-.289E-5,0
EXPRESS-AM44,2009-007A,2026-06-20T04:13:19.227072,1.00271182,.0004031,3.4724,78.3623,4.8647,237.4787,0,U,33595,999,5231,0,-.95E-6,0
NSS-9,2009-008A,2026-06-19T20:35:26.168064,1.00271231,.00020522,1.2698,82.6330,347.8961,329.4618,0,U,33749,999,6354,0,.66E-6,0
TELSTAR 11N,2009-009A,2026-06-19T23:27:01.137600,1.00269909,.00023155,0.0290,72.7814,18.9415,130.6491,0,U,34111,999,4627,0,-.256E-5,0
WGS F2 (USA 204),2009-017A,2026-06-19T19:07:30.088128,1.00271016,.00000742,0.0195,10.8943,235.7591,5.7399,0,U,34713,999,4564,0,.62E-6,0
SES-7 (PROTOSTAR 2),2009-027A,2026-06-19T20:03:21.648672,1.00270739,.00004859,0.0450,71.1849,279.3624,326.5935,0,U,34941,999,6265,0,-.35E-5,0
MEASAT-3A,2009-032A,2026-06-19T20:28:49.301760,1.00271887,.00029647,0.0227,6.3248,75.1261,293.8366,0,U,35362,999,805,0,-.116E-5,0
GOES 14,2009-033A,2026-06-19T20:09:46.773216,1.00110180,.00018906,1.6979,83.0125,13.0047,254.7779,0,U,35491,999,661,0,-.307E-5,0
FM-5,2009-034A,2026-06-19T21:01:16.190976,1.00272378,.00009226,0.0201,291.8802,26.0420,179.3265,0,U,35493,999,4667,0,-.206E-5,0
TERRESTAR-1,2009-035A,2026-06-19T15:46:05.263104,1.00272820,.00027022,5.1779,48.7966,33.0134,311.5801,0,U,35496,999,6215,0,-.64E-6,0
ASIASAT 5,2009-042A,2026-06-19T21:54:32.552928,1.00265972,.00015879,0.0311,50.9242,37.9762,248.4307,0,U,35696,999,6173,0,0,0
JCSAT-12 (JCSAT-RA),2009-044A,2026-06-19T20:20:50.067744,1.00275463,.000047,0.0065,2.8687,300.7453,41.7065,0,U,35755,999,6163,0,-.333E-5,0
OPTUS D3,2009-044B,2026-06-19T20:27:41.909760,1.00268661,.00028867,0.8769,268.9133,174.9992,287.2189,0,U,35756,999,6159,0,-.152E-5,0
NIMIQ 5,2009-050A,2026-06-19T21:05:08.320128,1.00270125,.00027241,0.0200,8.0206,74.7979,68.8713,0,U,35873,999,6137,0,0,0
AMAZONAS 2,2009-054A,2026-06-19T21:05:23.295840,1.00272594,.00031975,1.8236,83.0171,7.0605,62.3703,0,U,35942,999,6121,0,-.265E-5,0
COMSATBW-1,2009-054B,2026-06-19T22:28:48.370944,1.00269157,.00028284,0.0523,159.0775,288.1124,221.2064,0,U,35943,999,6133,0,.2E-6,0
NSS-12,2009-058A,2026-06-19T19:59:29.573952,1.00272947,.00050536,0.0911,275.0513,143.2937,206.5731,0,U,36032,999,6094,0,.66E-6,0
THOR 6,2009-058B,2026-06-19T18:49:38.807616,1.00271691,.00016592,0.0279,105.5552,340.9065,103.1090,0,U,36033,999,6103,0,-.15E-6,0
INTELSAT 14 (IS-14),2009-064A,2026-06-19T23:13:14.726784,1.00271631,.00023764,0.0154,331.8636,115.8649,123.7731,0,U,36097,999,6063,0,-.279E-5,0
EUTELSAT 36B,2009-065A,2026-06-19T18:14:55.738176,1.00269208,.0005516,0.4985,81.1359,5.3432,145.7296,0,U,36101,999,6073,0,.107E-5,0
INTELSAT 15 (IS-15),2009-067A,2026-06-19T20:07:28.847712,1.00272177,.00021757,0.0178,347.8664,101.4969,205.7098,0,U,36106,999,4125,0,-.191E-5,0
WGS F3 (USA 211),2009-068A,2026-06-19T17:23:31.787808,1.00269156,.0000308,0.3235,85.7326,268.8855,44.2087,0,U,36108,999,4661,0,.59E-6,0
DIRECTV 12,2009-075A,2026-06-19T15:48:35.023680,1.00270604,.00002862,0.0448,170.4501,291.6356,300.2141,0,U,36131,999,4657,0,-.109E-5,0
BEIDOU-2 G1,2010-001A,2026-06-19T22:05:53.964672,1.00269320,.00022614,4.3008,60.4070,297.4453,22.2130,0,U,36287,999,6019,0,-.287E-5,0
SDO,2010-005A,2026-06-17T09:50:26.387232,1.00269958,.00017341,34.6527,86.3378,44.0102,180.8312,0,U,36395,999,6006,0,-.96E-6,0
INTELSAT 16 (IS-16),2010-006A,2026-06-19T21:04:08.416416,1.00272172,.00020254,0.0100,348.5640,114.1436,45.2174,0,U,36397,999,5968,0,-.25E-5,0
EWS-G2 (GOES 15),2010-008A,2026-06-19T19:27:31.775616,1.00266643,.00049056,1.2858,82.8080,42.1464,138.6248,0,U,36411,999,5966,0,.14E-6,0
ECHOSTAR 14,2010-010A,2026-06-19T20:51:47.100960,1.00270134,.00024442,0.0163,34.1973,65.5222,2.4147,0,U,36499,999,4658,0,-.5E-7,0
SES-1,2010-016A,2026-06-19T20:57:01.597824,1.00270911,.00026735,0.0284,301.0861,143.5238,36.7305,0,U,36516,999,5906,0,-.12E-5,0
